KUZGTU 1 (RS47S)        
1 57217U 23091AV  26162.60507682  .00011790  00000+0  41091-3 0  9993
2 57217  97.5072 227.0284 0012340 115.2102 245.0419 15.29733293163527
SONATE-2                
1 59112U 24043Q   26162.35976318  .00032247  00000+0  42602-3 0  9994
2 59112  97.5520 312.4010 0006796 215.3687 144.7119 15.58280489126982
MESAT1                  
1 60209U 24125G   26162.60005231  .00050616  00000+0  56470-3 0  9997
2 60209  97.2312  19.9579 0009060 224.7831 135.2697 15.62604296108693
OOV-CUBE (TUBSAT-30)    
1 60240U 24128F   26162.59923855  .00001977  00000+0  15980-3 0  9991
2 60240  61.9950 245.0577 0045327 132.4986 227.9949 15.02751187105272
COLIBRI-S (RS67S)       
1 61746U 24199M   26162.63055539  .00021375  00000+0  41716-3 0  9991
2 61746  97.3008  36.4356 0006363 306.0613  54.0048 15.47495504136552
HORS 3 (RS81S)          
1 61753U 24199U   26162.61890464  .00034401  00000+0  52082-3 0  9993
2 61753  97.2992  38.3507 0003916 312.7003  47.3921 15.54587599136692
HORS 4 (RS82S)          
1 61754U 24199V   26162.59606452  .00046046  00000+0  58730-3 0  9997
2 61754  97.2940  39.4932 0003017 297.0688  63.0261 15.59165300136774
ARCTICSAT 1 (RS74S)     
1 61762U 24199AD  26162.51282498  .01934965  23538-5  12655-2 0  9997
2 61762  97.2842  46.4180 0009493 212.9334 147.1363 16.17145326137213
SIT-2086                
1 61764U 24199AF  26162.59038330  .00034146  00000+0  55336-3 0  9999
2 61764  97.2948  38.8176 0004357 282.3912  77.6854 15.52701713133561
HYPERVIEW 1G (RS66S)    
1 61772U 24199AP  26162.59907788  .00121518  00000+0  83249-3 0  9994
2 61772  97.2896  42.0416 0002618 250.8791 109.2191 15.74379761133798
ALTAIR (RS65S)          
1 61779U 24199AW  26162.57807838  .00010705  00000+0  29803-3 0  9995
2 61779  97.3045  31.9666 0011635 333.7214  26.3439 15.36921924136256
ASRTU-1 (AO-123)        
1 61781U 24199AY  26162.62625165  .00007237  00000+0  21093-3 0  9994
2 61781  97.3015  31.3477 0012865 335.9422  24.1219 15.35596437133076
SAMSAT-IONOSPHERE (RS7*)
1 61784U 24199BB  26162.59796638  .00042844  00000+0  58945-3 0  9996
2 61784  97.2962  38.3559 0006048 306.0953  53.9742 15.57138226136695
RTU MIREA 1 (RS51S)     
1 61785U 24199BC  26162.63457607  .00053301  00000+0  64566-3 0  9998
2 61785  97.2953  39.1968 0005522 298.0744  61.9955 15.60483499133605
TEVEL2-4                
1 63213U 25052D   26162.18292589  .00015571  00000+0  46925-3 0  9997
2 63213  97.3916  58.5659 0004699 114.3674 245.8060 15.34397986 69199
TEVEL2-5                
1 63214U 25052E   26162.20275645  .00015444  00000+0  46795-3 0  9999
2 63214  97.3918  58.5347 0004587 115.8505 244.3212 15.34228834 69199
TEVEL2-6                
1 63215U 25052F   26162.21494849  .00015699  00000+0  47618-3 0  9997
2 63215  97.3920  58.5314 0004506 115.9282 244.2426 15.34192620 69190
TEVEL2-1                
1 63217U 25052H   26162.63338451  .00016584  00000+0  51094-3 0  9998
2 63217  97.3895  58.5815 0004483 123.9647 236.2022 15.33683699 69246
TEVEL2-3                
1 63218U 25052J   26162.62822595  .00016887  00000+0  51936-3 0  9996
2 63218  97.3891  58.5978 0004480 124.2952 235.8715 15.33736393 69247
TEVEL2-2                
1 63219U 25052K   26162.63372872  .00016607  00000+0  51153-3 0  9997
2 63219  97.3892  58.5842 0004437 124.7997 235.3664 15.33691849 69249
TEVEL2-9                
1 63237U 25052AD  26162.60400314  .00015538  00000+0  50886-3 0  9991
2 63237  97.3954  57.9412 0007282 146.0799 214.0909 15.31727154 69177
TEVEL2-7                
1 63238U 25052AE  26161.99043871  .00014830  00000+0  49055-3 0  9994
2 63238  97.3955  57.2476 0007322 148.6596 211.5083 15.31416691 69075
TEVEL2-8                
1 63239U 25052AF  26162.45601756  .00013401  00000+0  44363-3 0  9999
2 63239  97.3954  57.6893 0007387 147.9653 212.2039 15.31412987 69140
INNOSAT 16 (RS92S7)     
1 64878U 25155C   26162.62304753  .00005050  00000+0  20264-3 0  9994
2 64878  97.4555 129.7686 0009866 195.2389 164.8553 15.25397996 79829
GEOSCAN 6 (RS92S6)      
1 64879U 25155D   26162.62280503  .00009233  00000+0  31981-3 0  9996
2 64879  97.4547 131.1533 0007596 180.8724 179.2504 15.30047938 79910
GEOSCAN 1 (RS92S1)      
1 64880U 25155E   26162.62740248  .00009736  00000+0  33102-3 0  9990
2 64880  97.4543 131.3011 0007551 180.4484 179.6751 15.30634689 79925
239ALFEROV (RS61S)      
1 64881U 25155F   26162.60492969  .00013687  00000+0  43406-3 0  9991
2 64881  97.4544 131.8213 0007249 177.1686 182.9598 15.32791043 79956
GEOSCAN 2 (RS92S2)      
1 64890U 25155Q   26162.62207072  .00009757  00000+0  32898-3 0  9998
2 64890  97.4542 131.4461 0007410 166.6043 193.5396 15.30906006 79932
GEOSCAN 5 (RS92S5)      
1 64891U 25155R   26162.59511177  .00013513  00000+0  42447-3 0  9995
2 64891  97.4536 131.9467 0005938 180.3950 179.7288 15.33109486 79969
GEOSCAN 4 (RS92S4)      
1 64892U 25155S   26162.57985978  .00013632  00000+0  42615-3 0  9997
2 64892  97.4540 131.9782 0005982 180.6150 179.5086 15.33260297 79961
